{
  "norad_id": 66434,
  "name": "STARLINK-35389",
  "history": [
    {
      "epoch": "2026-03-28T21:45:34.637760Z",
      "apogee_km": 483.55357352822375,
      "perigee_km": 482.49695453956156,
      "latitude_deg": 5.254520441530872e-06,
      "longitude_deg": 12.809209769794759,
      "height_km": 482.37247344132726,
      "semi_major_axis_km": 6861.162264033892,
      "eccentricity": 7.7e-05,
      "inclination_deg": 42.9995,
      "raan_deg": 165.5239,
      "arg_perigee_deg": 324.2287,
      "mean_anomaly_deg": 35.8513,
      "mean_motion_rev_day": 15.27587959
    }
  ]
}